OBJECT_NAME,OBJECT_ID,EPOCH,MEAN_MOTION,ECCENTRICITY,INCLINATION,RA_OF_ASC_NODE,ARG_OF_PERICENTER,MEAN_ANOMALY,EPHEMERIS_TYPE,CLASSIFICATION_TYPE,NORAD_CAT_ID,ELEMENT_SET_NO,REV_AT_EPOCH,BSTAR,MEAN_MOTION_DOT,MEAN_MOTION_DDOT
CENTISPACE-1 GROUP 05 OBJECT J,2026-138J,2026-07-13T09:42:48.125952,14.15842380,.0009547,55.1383,184.3032,341.3483,18.7141,0,U,69636,999,370,-.51944E-4,-.256E-5,0
VICTUS HAZE PUMA,2026-142A,2026-07-13T12:49:48.309024,15.20840853,.0025032,97.4471,91.8573,272.0575,87.7794,0,U,69646,999,367,.97535E-4,.2098E-4,0
HOKUSHIN-1,1998-067YH,2026-07-12T23:21:36.149184,15.50931223,.00061287,51.6302,172.2596,322.5692,37.4870,0,U,69648,999,365,.30625514E-3,.17654E-3,0
STARLINK-37656,2026-143A,2026-07-13T02:02:16.420992,15.49213961,.00010772,97.2854,237.9473,101.4008,258.7365,0,U,69649,999,455,.70683732E-3,.38574E-3,0
STARLINK-37646,2026-143B,2026-07-13T12:00:00.998784,15.49165736,.0001793,97.2847,238.5423,85.3761,119.0401,0,U,69650,999,468,.18585E-2,.102229E-2,0
STARLINK-37749,2026-143C,2026-07-13T12:00:00.998784,15.49206137,.0000928,97.2922,238.5252,140.8597,25.2912,0,U,69651,999,469,.37068E-3,.20133E-3,0
STARLINK-37819,2026-143D,2026-07-13T12:00:00.998784,15.49137077,.0001168,97.2846,238.4987,76.3335,25.3597,0,U,69652,999,469,.19475E-2,.107087E-2,0
STARLINK-37729,2026-143E,2026-07-13T02:31:04.165248,15.83313120,.00017324,97.2835,238.3815,230.7304,129.3812,0,U,69653,999,458,.14186802E-2,.316076E-2,0
STARLINK-37838,2026-143F,2026-07-13T12:00:00.998784,15.49143432,.0001431,97.2843,238.5683,69.9456,196.7595,0,U,69654,999,469,.18478E-2,.101549E-2,0
STARLINK-37884,2026-143G,2026-07-13T02:27:43.972992,15.49226026,.00011583,97.2860,238.0768,79.8230,280.3151,0,U,69655,999,456,.47517804E-3,.25871E-3,0
STARLINK-37876,2026-143H,2026-07-13T12:00:00.998784,15.49142013,.0001443,97.2842,238.5677,100.3354,163.9600,0,U,69656,999,459,.1846E-2,.101443E-2,0
STARLINK-37784,2026-143J,2026-07-13T12:00:00.998784,15.49137920,.0001199,97.2845,238.4959,84.6967,12.0488,0,U,69657,999,459,.19614E-2,.107862E-2,0
STARLINK-37851,2026-143K,2026-07-13T12:00:00.998784,15.49139495,.000104,97.2843,238.5620,105.5865,146.7143,0,U,69658,999,458,.18345E-2,.100793E-2,0
STARLINK-37229,2026-143L,2026-07-13T12:00:00.998784,15.49141476,.0001324,97.2850,238.5161,95.6262,48.0063,0,U,69659,999,463,.20402E-2,.112277E-2,0
STARLINK-37556,2026-143M,2026-07-13T12:00:00.998784,15.49137600,.0001369,97.2849,238.5434,96.6148,110.9709,0,U,69660,999,463,.16656E-2,.9139E-3,0
STARLINK-37867,2026-143N,2026-07-13T12:00:00.998784,15.49145532,.0001742,97.2844,238.5624,89.5593,161.2534,0,U,69661,999,459,.18026E-2,.99038E-3,0
STARLINK-37852,2026-143P,2026-07-13T12:00:00.998784,15.49143006,.0001141,97.2845,238.4869,98.6991,335.1280,0,U,69662,999,459,.20847E-2,.11477E-2,0
STARLINK-37554,2026-143Q,2026-07-13T12:00:00.998784,15.49139239,.0000977,97.2848,238.5385,90.9274,107.1609,0,U,69663,999,463,.18776E-2,.103196E-2,0
STARLINK-37830,2026-143R,2026-07-13T12:00:00.998784,15.49138605,.0001491,97.2850,238.5027,91.2950,22.5420,0,U,69664,999,458,.20309E-2,.111749E-2,0
STARLINK-37837,2026-143S,2026-07-13T12:00:00.998784,15.44941454,.0001243,97.2857,238.5678,101.7895,148.3780,0,U,69665,999,459,-.66987E-1,-.2751758E-1,0
STARLINK-37943,2026-143T,2026-07-13T12:00:00.998784,15.49140256,.0001412,97.2849,238.5048,90.7137,26.0869,0,U,69666,999,459,.20428E-2,.112418E-2,0
STARLINK-37941,2026-143U,2026-07-13T12:00:00.998784,15.49139539,.0001107,97.2850,238.5335,81.3610,105.8155,0,U,69667,999,459,.18727E-2,.102925E-2,0
STARLINK-37930,2026-143V,2026-07-13T12:00:00.998784,15.49139794,.0001183,97.2849,238.5350,87.3759,102.7977,0,U,69668,999,458,.18682E-2,.102673E-2,0
STARLINK-37945,2026-143W,2026-07-13T12:00:00.998784,15.49134552,.0001382,97.2842,238.5671,95.5300,166.5360,0,U,69669,999,459,.20465E-2,.112604E-2,0
STARLINK-37948,2026-143X,2026-07-13T01:10:13.785024,15.49226385,.00014663,97.2875,238.0004,77.9234,282.2182,0,U,69670,999,448,.85147252E-3,.46554E-3,0
STARLINK-37949,2026-143Y,2026-07-13T12:00:00.998784,15.49139486,.0000522,97.2848,238.5101,89.7368,41.3269,0,U,69671,999,459,.19493E-2,.107196E-2,0
STARLINK-37946,2026-143Z,2026-07-13T12:00:00.998784,15.49140275,.0001348,97.2848,238.5442,83.1952,125.5228,0,U,69672,999,459,.18514E-2,.101739E-2,0
TJS-26A,2026-144A,2026-07-12T07:10:37.543296,1.00274367,.0004208,6.9538,323.2302,347.4913,194.6526,0,U,69674,999,19,0,-.341E-5,0
