CENTISPACE-1 GROUP 05 O*
1 69636U 26138J   26194.40472368 -.00000256  00000+0 -51944-4 0  9997
2 69636  55.1383 184.3032 0009547 341.3483  18.7141 14.15842380  3707
VICTUS HAZE PUMA        
1 69646U 26142A   26194.53458691  .00002098  00000+0  97535-4 0  9990
2 69646  97.4471  91.8573 0025032 272.0575  87.7794 15.20840853  3672
HOKUSHIN-1              
1 69648U 98067YH  26193.97333506  .00017654  00000+0  30626-3 0  9992
2 69648  51.6302 172.2596 0006128 322.5692  37.4870 15.50931223  3654
STARLINK-37656          
1 69649U 26143A   26194.08491228  .00038574  00000+0  70684-3 0  9990
2 69649  97.2854 237.9473 0001077 101.4008 258.7365 15.49213961  4556
STARLINK-37646          
1 69650U 26143B   26194.50001156  .00102229  00000+0  18585-2 0  9996
2 69650  97.2847 238.5423 0001793  85.3761 119.0401 15.49165736  4683
STARLINK-37749          
1 69651U 26143C   26194.50001156  .00020133  00000+0  37068-3 0  9998
2 69651  97.2922 238.5252 0000928 140.8597  25.2912 15.49206137  4698
STARLINK-37819          
1 69652U 26143D   26194.50001156  .00107087  00000+0  19475-2 0  9994
2 69652  97.2846 238.4987 0001168  76.3335  25.3597 15.49137077  4694
STARLINK-37729          
1 69653U 26143E   26194.10490932  .00316076  00000+0  14187-2 0  9990
2 69653  97.2835 238.3815 0001732 230.7304 129.3812 15.83313120  4587
STARLINK-37838          
1 69654U 26143F   26194.50001156  .00101549  00000+0  18478-2 0  9995
2 69654  97.2843 238.5683 0001431  69.9456 196.7595 15.49143432  4695
STARLINK-37884          
1 69655U 26143G   26194.10259228  .00025871  00000+0  47518-3 0  9998
2 69655  97.2860 238.0768 0001158  79.8230 280.3151 15.49226026  4565
STARLINK-37876          
1 69656U 26143H   26194.50001156  .00101443  00000+0  18460-2 0  9991
2 69656  97.2842 238.5677 0001443 100.3354 163.9600 15.49142013  4595
STARLINK-37784          
1 69657U 26143J   26194.50001156  .00107862  00000+0  19614-2 0  9995
2 69657  97.2845 238.4959 0001199  84.6967  12.0488 15.49137920  4592
STARLINK-37851          
1 69658U 26143K   26194.50001156  .00100793  00000+0  18345-2 0  9992
2 69658  97.2843 238.5620 0001040 105.5865 146.7143 15.49139495  4583
STARLINK-37229          
1 69659U 26143L   26194.50001156  .00112277  00000+0  20402-2 0  9990
2 69659  97.2850 238.5161 0001324  95.6262  48.0063 15.49141476  4630
STARLINK-37556          
1 69660U 26143M   26194.50001156  .00091390  00000+0  16656-2 0  9990
2 69660  97.2849 238.5434 0001369  96.6148 110.9709 15.49137600  4636
STARLINK-37867          
1 69661U 26143N   26194.50001156  .00099038  00000+0  18026-2 0  9991
2 69661  97.2844 238.5624 0001742  89.5593 161.2534 15.49145532  4596
STARLINK-37852          
1 69662U 26143P   26194.50001156  .00114770  00000+0  20847-2 0  9997
2 69662  97.2845 238.4869 0001141  98.6991 335.1280 15.49143006  4598
STARLINK-37554          
1 69663U 26143Q   26194.50001156  .00103196  00000+0  18776-2 0  9996
2 69663  97.2848 238.5385 0000977  90.9274 107.1609 15.49139239  4631
STARLINK-37830          
1 69664U 26143R   26194.50001156  .00111749  00000+0  20309-2 0  9995
2 69664  97.2850 238.5027 0001491  91.2950  22.5420 15.49138605  4586
STARLINK-37837          
1 69665U 26143S   26194.50001156 -.02751758  00000+0 -66987-1 0  9991
2 69665  97.2857 238.5678 0001243 101.7895 148.3780 15.44941454  4592
STARLINK-37943          
1 69666U 26143T   26194.50001156  .00112418  00000+0  20428-2 0  9993
2 69666  97.2849 238.5048 0001412  90.7137  26.0869 15.49140256  4595
STARLINK-37941          
1 69667U 26143U   26194.50001156  .00102925  00000+0  18727-2 0  9995
2 69667  97.2850 238.5335 0001107  81.3610 105.8155 15.49139539  4596
STARLINK-37930          
1 69668U 26143V   26194.50001156  .00102673  00000+0  18682-2 0  9996
2 69668  97.2849 238.5350 0001183  87.3759 102.7977 15.49139794  4586
STARLINK-37945          
1 69669U 26143W   26194.50001156  .00112604  00000+0  20465-2 0  9994
2 69669  97.2842 238.5671 0001382  95.5300 166.5360 15.49134552  4592
STARLINK-37948          
1 69670U 26143X   26194.04877066  .00046554  00000+0  85147-3 0  9995
2 69670  97.2875 238.0004 0001466  77.9234 282.2182 15.49226385  4480
STARLINK-37949          
1 69671U 26143Y   26194.50001156  .00107196  00000+0  19493-2 0  9996
2 69671  97.2848 238.5101 0000522  89.7368  41.3269 15.49139486  4592
STARLINK-37946          
1 69672U 26143Z   26194.50001156  .00101739  00000+0  18514-2 0  9997
2 69672  97.2848 238.5442 0001348  83.1952 125.5228 15.49140275  4593
TJS-26A                 
1 69674U 26144A   26193.29904564 -.00000341  00000+0  00000+0 0  9996
2 69674   6.9538 323.2302 0004208 347.4913 194.6526  1.00274367   198
